{
  "type": "FeatureCollection",
  "features": [
    {
      "type": "Feature",
      "properties": {
        "name": "Pos Satpam [Gerbang Keluar]",
        "category": "gate"
      },
      "geometry": {
        "type": "Point",
        "coordinates": [
          107.61128566453931,
          -6.88282548140144
        ]
      }
    },
    {
      "type": "Feature",
      "properties": {
        "name": "Pintu Masuk BRIN",
        "category": "gate"
      },
      "geometry": {
        "type": "Point",
        "coordinates": [
          107.61072494225465,
          -6.88271812809009
        ]
      }
    },
    {
      "type": "Feature",
      "properties": {
        "name": "BRIN SAMAUN SAMADIKUN",
        "category": "building"
      },
      "geometry": {
        "type": "Polygon",
        "coordinates": [
          [
            [
              107.61059030528935,
              -6.8814935273577476
            ],
            [
              107.61055435697352,
              -6.881603186397982
            ],
            [
              107.61055451863717,
              -6.881871606483273
            ],
            [
              107.61055108500608,
              -6.882064492366339
            ],
            [
              107.61055068686835,
              -6.882161503422651
            ],
            [
              107.6105488208533,
              -6.882288093250807
            ],
            [
              107.61054899498782,
              -6.882641877907943
            ],
            [
              107.61054337861202,
              -6.882966719935041
            ],
            [
              107.61065387579367,
              -6.883064785040602
            ],
            [
              107.6112307709115,
              -6.883859107907554
            ],
            [
              107.61130400555125,
              -6.88379508785544
            ],
            [
              107.61130355569256,
              -6.883687519044772
            ],
            [
              107.61130470454935,
              -6.883418188877005
            ],
            [
              107.61131247986157,
              -6.882970704690244
            ],
            [
              107.6116555070854,
              -6.882911437112153
            ],
            [
              107.61167139149609,
              -6.882843471681554
            ],
            [
              107.61178469385442,
              -6.881362406101928
            ],
            [
              107.61176581012876,
              -6.881306163013818
            ],
            [
              107.61118390448291,
              -6.88115936112105
            ],
            [
              107.61059607746279,
              -6.881047831547335
            ],
            [
              107.6106013332647,
              -6.881315504714415
            ],
            [
              107.61059030528935,
              -6.8814935273577476
            ]
          ]
        ]
      }
    },
    {
      "type": "Feature",
      "properties": {
        "name": "Gedung 10 BRIN",
        "category": "building"
      },
      "geometry": {
        "type": "Point",
        "coordinates": [
          107.61113943761342,
          -6.881834852334364
        ]
      }
    },
    {
      "type": "Feature",
      "properties": {
        "name": "Masjid BRIN",
        "category": "facility"
      },
      "geometry": {
        "type": "Point",
        "coordinates": [
          107.61110687079912,
          -6.8821714086871
        ]
      }
    },
    {
      "type": "Feature",
      "properties": {
        "name": "Workshop BRIN",
        "category": "facility"
      },
      "geometry": {
        "type": "Point",
        "coordinates": [
          107.61118532823122,
          -6.881442448253523
        ]
      }
    },
    {
      "type": "Feature",
      "properties": {
        "name": "LAB T1 BRIN [Autonomous]",
        "category": "facility"
      },
      "geometry": {
        "type": "Point",
        "coordinates": [
          107.6114443882891,
          -6.881302828718674
        ]
      }
    },
    {
      "type": "Feature",
      "properties": {
        "name": "Mini GYM BRIN",
        "category": "facility"
      },
      "geometry": {
        "type": "Point",
        "coordinates": [
          107.61165433313164,
          -6.882293541370245
        ]
      }
    },
    {
      "type": "Feature",
      "properties": {
        "name": "Parkiran Belakang BRIN",
        "category": "parking"
      },
      "geometry": {
        "type": "Point",
        "coordinates": [
          107.61171946760282,
          -6.8817100808617795
        ]
      }
    },
    {
      "type": "Feature",
      "properties": {
        "category": "road"
      },
      "geometry": {
        "type": "LineString",
        "coordinates": [
          [
            107.61060294280838,
            -6.882948304564081
          ],
          [
            107.6107238262602,
            -6.882723450496144
          ],
          [
            107.61073956270013,
            -6.882473481879586
          ],
          [
            107.61078991930293,
            -6.882420363530542
          ],
          [
            107.61097560928113,
            -6.882426612748503
          ],
          [
            107.61103540774809,
            -6.882429737358095
          ],
          [
            107.61107002791374,
            -6.882404740486081
          ],
          [
            107.61109205892802,
            -6.882370369785548
          ],
          [
            107.61111094265374,
            -6.882111027150813
          ],
          [
            107.61113926824362,
            -6.881823562858358
          ],
          [
            107.61118018298498,
            -6.8814923537838695
          ],
          [
            107.61119906671212,
            -6.881304876846926
          ],
          [
            107.61124312874057,
            -6.881279879917059
          ],
          [
            107.61146658617014,
            -6.881304876846926
          ],
          [
            107.61171836919101,
            -6.881342372239999
          ],
          [
            107.61174040020529,
            -6.881386116861705
          ],
          [
            107.61172151647821,
            -6.881701702942607
          ],
          [
            107.61165857072399,
            -6.882282880719529
          ],
          [
            107.6116145086956,
            -6.88277344420392
          ],
          [
            107.6115956249684,
            -6.882810939480962
          ],
          [
            107.61151379548716,
            -6.8828265625120935
          ],
          [
            107.61128415687688,
            -6.882825420134495
          ]
        ]
      }
    },
    {
      "type": "Feature",
      "properties": {
        "category": "road"
      },
      "geometry": {
        "type": "LineString",
        "coordinates": [
          [
            107.61128434219881,
            -6.882825614027283
          ],
          [
            107.61126742509839,
            -6.882940162022933
          ],
          [
            107.61125458920503,
            -6.882992980359674
          ],
          [
            107.61125119537729,
            -6.883050253246395
          ],
          [
            107.61125237286109,
            -6.8831787379445615
          ],
          [
            107.61125197063228,
            -6.883357229324929
          ],
          [
            107.61125503192596,
            -6.883620669769243
          ],
          [
            107.61125049196949,
            -6.883735602543453
          ],
          [
            107.61122526880246,
            -6.883755776127998
          ],
          [
            107.6110607454184,
            -6.883528612934455
          ],
          [
            107.61091570909116,
            -6.883320897579964
          ],
          [
            107.6107771811034,
            -6.883133484549475
          ],
          [
            107.61072463825911,
            -6.883067782368258
          ],
          [
            107.61064817454059,
            -6.882990092463203
          ],
          [
            107.61059846642587,
            -6.882958477433888
          ],
          [
            107.61060287174757,
            -6.882948134349945
          ]
        ]
      }
    }
  ]
}