{
  "type": "FeatureCollection",
  "features": [
    {
      "type": "Feature",
      "properties": {
        "name": "BRIN SAMAUN SAMADIKUN"
      },
      "geometry": {
        "coordinates": [
          [
            [
              107.61059030528935,
              -6.8814935273577476
            ],
            [
              107.61055435697352,
              -6.881603186397982
            ],
            [
              107.61055451863717,
              -6.881871606483273
            ],
            [
              107.61055108500608,
              -6.882064492366339
            ],
            [
              107.61055068686835,
              -6.882161503422651
            ],
            [
              107.6105488208533,
              -6.882288093250807
            ],
            [
              107.61054899498782,
              -6.882641877907943
            ],
            [
              107.61054783797636,
              -6.882870319950541
            ],
            [
              107.61066426268695,
              -6.882921585681743
            ],
            [
              107.61167139149609,
              -6.882843471681554
            ],
            [
              107.61178469385442,
              -6.881362406101928
            ],
            [
              107.61176581012876,
              -6.881306163013818
            ],
            [
              107.61118390448291,
              -6.88115936112105
            ],
            [
              107.61059607746279,
              -6.881047831547335
            ],
            [
              107.6106013332647,
              -6.881315504714415
            ],
            [
              107.61059030528935,
              -6.8814935273577476
            ]
          ]
        ],
        "type": "Polygon"
      }
    },
    {
      "type": "Feature",
      "properties": {
        "name ": "Pintu Masuk BRIN"
      },
      "geometry": {
        "coordinates": [
          107.61072494225465,
          -6.88271812809009
        ],
        "type": "Point"
      }
    },
    {
      "type": "Feature",
      "properties": {
        "name": "Masjid BRIN"
      },
      "geometry": {
        "coordinates": [
          107.61110687079912,
          -6.8821714086871
        ],
        "type": "Point"
      }
    },
    {
      "type": "Feature",
      "properties": {
        "name": "Gedung 10  BRIN"
      },
      "geometry": {
        "coordinates": [
          107.61113943761342,
          -6.881834852334364
        ],
        "type": "Point"
      }
    },
    {
      "type": "Feature",
      "properties": {
        "name": "Workshop BRIN"
      },
      "geometry": {
        "coordinates": [
          107.61118532823122,
          -6.881442448253523
        ],
        "type": "Point"
      }
    },
    {
      "type": "Feature",
      "properties": {
        "name": "LAB T1 BRIN [Autonomous]"
      },
      "geometry": {
        "coordinates": [
          107.6114443882891,
          -6.881302828718674
        ],
        "type": "Point"
      }
    },
    {
      "type": "Feature",
      "properties": {
        "name": "Parkiran Belakang BRIN"
      },
      "geometry": {
        "coordinates": [
          107.61171946760282,
          -6.8817100808617795
        ],
        "type": "Point"
      }
    },
    {
      "type": "Feature",
      "properties": {
        "name": "Mini GYM BRIN"
      },
      "geometry": {
        "coordinates": [
          107.61165433313164,
          -6.882293541370245
        ],
        "type": "Point"
      }
    },
    {
      "type": "Feature",
      "properties": {
        "name": "Pos Satpam 2"
      },
      "geometry": {
        "coordinates": [
          107.61129016741171,
          -6.882831603092029
        ],
        "type": "Point"
      }
    },
    {
      "type": "Feature",
      "properties": {
        "name": "Pintu Keluar BRIN"
      },
      "geometry": {
        "coordinates": [
          107.61127832466588,
          -6.882878632683088
        ],
        "type": "Point"
      }
    },
    {
      "type": "Feature",
      "properties": {},
      "geometry": {
        "coordinates": [
          [
            107.61061777490448,
            -6.882924989659571
          ],
          [
            107.6107238262602,
            -6.882723450496144
          ],
          [
            107.61073956270013,
            -6.882473481879586
          ],
          [
            107.61078991930293,
            -6.882420363530542
          ],
          [
            107.61097560928113,
            -6.882426612748503
          ],
          [
            107.61103540774809,
            -6.882429737358095
          ],
          [
            107.61107002791374,
            -6.882404740486081
          ],
          [
            107.61109205892802,
            -6.882370369785548
          ],
          [
            107.61111094265374,
            -6.882111027150813
          ],
          [
            107.61113926824362,
            -6.881823562858358
          ],
          [
            107.61118018298498,
            -6.8814923537838695
          ],
          [
            107.61119906671212,
            -6.881304876846926
          ],
          [
            107.61124312874057,
            -6.881279879917059
          ],
          [
            107.61146658617014,
            -6.881304876846926
          ],
          [
            107.61171836919101,
            -6.881342372239999
          ],
          [
            107.61174040020529,
            -6.881386116861705
          ],
          [
            107.61172151647821,
            -6.881701702942607
          ],
          [
            107.61165857072399,
            -6.882282880719529
          ],
          [
            107.6116145086956,
            -6.88277344420392
          ],
          [
            107.6115956249684,
            -6.882810939480962
          ],
          [
            107.61151379548716,
            -6.8828265625120935
          ],
          [
            107.61128719076913,
            -6.882829687119056
          ],
          [
            107.6112714543305,
            -6.882923425295672
          ]
        ],
        "type": "LineString"
      }
    }
  ]
}